NORAD_CAT_ID,OBJECT_NAME,OBJECT_TYPE,EPOCH,MEAN_MOTION,ECCENTRICITY,INCLINATION,RA_OF_ASC_NODE,ARG_OF_PERICENTER,MEAN_ANOMALY,BSTAR,MEAN_MOTION_DOT,MEAN_MOTION_DDOT,TLE_LINE0,TLE_LINE1,TLE_LINE2,SEMIMAJOR_AXIS,PERIOD,APOGEE,PERIGEE,DECAYED
53138.0,STARLINK-4141,PAYLOAD,2023-09-17 18:10:57,15.08851471,0.0001511,53.2152,267.2105,93.1559,266.9606,0.00019651,2.842e-05,0.0,0 STARLINK-4141,1 53138U 22083G   23260.75760882  .00002842  00000-0  19651-3 0  9992,2 53138  53.2152 267.2105 0001511  93.1559 266.9606 15.08851471 65447,6917.845,95.437,540.756,538.665,0.0
53138.0,STARLINK-4141,PAYLOAD,2023-09-18 00:32:30,15.08843923,0.0001491,53.215,266.021,94.0607,266.0555,3.4328e-05,2.58e-06,0.0,0 STARLINK-4141,1 53138U 22083G   23261.02257023  .00000258  00000-0  34328-4 0  9999,2 53138  53.2150 266.0210 0001491  94.0607 266.0555 15.08843923 65481,6917.868,95.437,540.765,538.702,0.0
53138.0,STARLINK-4141,PAYLOAD,2023-09-18 06:54:02,15.08845498,0.0001475,53.2155,264.8318,93.6314,266.4847,-9.2566e-06,-4.35e-06,0.0,0 STARLINK-4141,1 53138U 22083G   23261.28752993 -.00000435  00000-0 -92566-5 0  9991,2 53138  53.2155 264.8318 0001475  93.6314 266.4847 15.08845498 65671,6917.864,95.437,540.749,538.708,0.0
53138.0,STARLINK-4141,PAYLOAD,2023-09-19 09:55:35,15.08851352,0.0001457,53.2156,259.7765,97.7501,262.3657,0.00019601,2.834e-05,0.0,0 STARLINK-4141,1 53138U 22083G   23262.41360443  .00002834  00000-0  19601-3 0  9992,2 53138  53.2156 259.7765 0001457  97.7501 262.3657 15.08851352 65696,6917.846,95.437,540.719,538.703,0.0
53138.0,STARLINK-4141,PAYLOAD,2023-09-20 00:14:04,15.08836192,0.0001418,53.2164,257.1009,94.2394,265.876,8.5454e-05,1.072e-05,0.0,0 STARLINK-4141,1 53138U 22083G   23263.00977332  .00001072  00000-0  85454-4 0  9992,2 53138  53.2164 257.1009 0001418  94.2394 265.8760 15.08836192 65785,6917.892,95.438,540.738,538.776,0.0
53138.0,STARLINK-4141,PAYLOAD,2023-09-20 06:35:37,15.0883422,0.0001441,53.216,255.9106,96.2446,263.871,1.9433e-05,2.1e-07,0.0,0 STARLINK-4141,1 53138U 22083G   23263.27473553  .00000021  00000-0  19433-4 0  9994,2 53138  53.2160 255.9106 0001441  96.2446 263.8710 15.08834220 65975,6917.898,95.438,540.76,538.766,0.0
53138.0,STARLINK-4141,PAYLOAD,2023-09-20 16:07:56,15.08833229,0.0001432,53.2161,254.1266,93.4653,266.6502,6.7187e-06,-1.81e-06,0.0,0 STARLINK-4141,1 53138U 22083G   23263.67217755 -.00000181  00000-0  67187-5 0  9996,2 53138  53.2161 254.1266 0001432  93.4653 266.6502 15.08833229 66039,6917.901,95.438,540.757,538.775,0.0
53138.0,STARLINK-4141,PAYLOAD,2023-09-21 08:01:47,15.08840784,0.0001399,53.2166,251.1543,95.0255,265.0897,6.5961e-05,7.62e-06,0.0,0 STARLINK-4141,1 53138U 22083G   23264.33457637  .00000762  00000-0  65961-4 0  9996,2 53138  53.2166 251.1543 0001399  95.0255 265.0897 15.08840784 65984,6917.878,95.438,540.711,538.775,0.0
53138.0,STARLINK-4141,PAYLOAD,2023-09-21 15:58:43,15.08837933,0.0001414,53.2166,249.6676,93.3185,266.7969,0.00011622,1.562e-05,0.0,0 STARLINK-4141,1 53138U 22083G   23264.66577888  .00001562  00000-0  11622-3 0  9996,2 53138  53.2166 249.6676 0001414  93.3185 266.7969 15.08837933 66187,6917.887,95.438,540.73,538.774,0.0
53138.0,STARLINK-4141,PAYLOAD,2023-09-21 23:55:39,15.08836381,0.0001452,53.2167,248.1809,94.2142,265.9016,0.00018139,2.6e-05,0.0,0 STARLINK-4141,1 53138U 22083G   23264.99698162  .00002600  00000-0  18139-3 0  9995,2 53138  53.2167 248.1809 0001452  94.2142 265.9016 15.08836381 66084,6917.891,95.438,540.761,538.752,0.0
53138.0,STARLINK-4141,PAYLOAD,2023-09-22 07:52:34,15.08843853,0.000146,53.2166,246.694,93.0018,267.1142,0.00026554,3.941e-05,0.0,0 STARLINK-4141,1 53138U 22083G   23265.32817916  .00003941  00000-0  26554-3 0  9992,2 53138  53.2166 246.6940 0001460  93.0018 267.1142 15.08843853 66288,6917.869,95.437,540.744,538.724,0.0
53138.0,STARLINK-4141,PAYLOAD,2023-09-22 15:49:30,15.08842642,0.0001438,53.2164,245.2072,93.5291,266.5865,0.00020142,2.919e-05,0.0,0 STARLINK-4141,1 53138U 22083G   23265.65937962  .00002919  00000-0  20142-3 0  9993,2 53138  53.2164 245.2072 0001438  93.5291 266.5865 15.08842642 66336,6917.872,95.437,540.732,538.743,0.0
53138.0,STARLINK-4141,PAYLOAD,2023-09-23 06:07:58,15.08852106,0.0001435,53.2162,242.5307,93.1306,266.985,0.00028493,4.251e-05,0.0,0 STARLINK-4141,1 53138U 22083G   23266.25553464  .00004251  00000-0  28493-3 0  9999,2 53138  53.2162 242.5307 0001435  93.1306 266.9850 15.08852106 66272,6917.843,95.437,540.701,538.716,0.0
53138.0,STARLINK-4141,PAYLOAD,2023-09-23 15:40:17,15.08845365,0.0001591,53.2167,240.7472,84.3341,275.7833,0.00014192,1.972e-05,0.0,0 STARLINK-4141,1 53138U 22083G   23266.65297729  .00001972  00000-0  14192-3 0  9990,2 53138  53.2167 240.7472 0001591  84.3341 275.7833 15.08845365 66339,6917.864,95.437,540.83,538.628,0.0
53138.0,STARLINK-4141,PAYLOAD,2023-09-24 07:34:08,15.08850002,0.0001398,53.2161,237.7707,91.6838,268.4314,0.0001706,2.429e-05,0.0,0 STARLINK-4141,1 53138U 22083G   23267.31537487  .00002429  00000-0  17060-3 0  9997,2 53138  53.2161 237.7707 0001398  91.6838 268.4314 15.08850002 66581,6917.85,95.437,540.682,538.748,0.0
53138.0,STARLINK-4141,PAYLOAD,2023-09-25 02:38:46,15.08844466,0.0001516,53.2169,234.2027,83.2383,276.8782,0.00013196,1.813e-05,0.0,0 STARLINK-4141,1 53138U 22083G   23268.11025809  .00001813  00000-0  13196-3 0  9998,2 53138  53.2169 234.2027 0001516  83.2383 276.8782 15.08844466 66556,6917.867,95.437,540.78,538.683,0.0
53138.0,STARLINK-4141,PAYLOAD,2023-09-25 07:24:55,15.0885385,0.0001337,53.2145,233.3103,108.1449,251.9689,0.00028594,4.267e-05,0.0,0 STARLINK-4141,1 53138U 22083G   23268.30897246  .00004267  00000-0  28594-3 0  9995,2 53138  53.2145 233.3103 0001337 108.1449 251.9689 15.08853850 66733,6917.838,95.437,540.628,538.778,0.0
53138.0,STARLINK-4141,PAYLOAD,2023-09-25 15:21:51,15.08847734,0.0001519,53.2164,231.8223,99.8155,260.3008,0.00022543,3.302e-05,0.0,0 STARLINK-4141,1 53138U 22083G   23268.64017460  .00003302  00000-0  22543-3 0  9991,2 53138  53.2164 231.8223 0001519  99.8155 260.3008 15.08847734 66780,6917.857,95.437,540.773,538.671,0.0
53138.0,STARLINK-4141,PAYLOAD,2023-09-26 04:04:55,15.08855092,0.0001417,53.2162,229.4454,85.3457,274.7697,0.00030197,4.523e-05,0.0,0 STARLINK-4141,1 53138U 22083G   23269.17009056  .00004523  00000-0  30197-3 0  9992,2 53138  53.2162 229.4454 0001417  85.3457 274.7697 15.08855092 66711,6917.834,95.437,540.68,538.719,0.0
53138.0,STARLINK-4141,PAYLOAD,2023-09-26 21:34:11,15.08836135,0.0001426,53.2159,226.1699,102.5668,257.5483,2.0773e-06,-2.55e-06,0.0,0 STARLINK-4141,1 53138U 22083G   23269.89873883 -.00000255  00000-0  20773-5 0  9998,2 53138  53.2159 226.1699 0001426 102.5668 257.5483 15.08836135 66975,6917.892,95.438,540.744,538.771,0.0
53138.0,STARLINK-4141,PAYLOAD,2023-09-27 02:20:20,15.08839465,0.0001412,53.2159,225.2791,107.6459,252.4688,6.8118e-05,7.96e-06,0.0,0 STARLINK-4141,1 53138U 22083G   23270.09745779  .00000796  00000-0  68118-4 0  9997,2 53138  53.2159 225.2791 0001412 107.6459 252.4688 15.08839465 66854,6917.882,95.438,540.724,538.77,0.0
53138.0,STARLINK-4141,PAYLOAD,2023-09-27 07:06:29,15.08839493,0.0001418,53.216,224.3874,108.2872,251.8275,7.3213e-05,8.77e-06,0.0,0 STARLINK-4141,1 53138U 22083G   23270.29617810  .00000877  00000-0  73213-4 0  9995,2 53138  53.2160 224.3874 0001418 108.2872 251.8275 15.08839493 67037,6917.882,95.438,540.728,538.766,0.0
53138.0,STARLINK-4141,PAYLOAD,2023-09-28 02:11:08,15.08826977,0.0001503,53.2162,220.818,108.6676,251.448,-5.6157e-05,-1.181e-05,0.0,0 STARLINK-4141,1 53138U 22083G   23271.09106878 -.00001181  00000-0 -56157-4 0  9990,2 53138  53.2162 220.8180 0001503 108.6676 251.4480 15.08826977 67005,6917.92,95.438,540.825,538.745,0.0
53138.0,STARLINK-4141,PAYLOAD,2023-09-29 06:48:04,15.08846293,0.0001159,53.2172,215.4693,90.4155,269.697,0.00034207,5.161e-05,0.0,0 STARLINK-4141,1 53138U 22083G   23272.28338744  .00005161  00000-0  34207-3 0  9992,2 53138  53.2172 215.4693 0001159  90.4155 269.6970 15.08846293 67189,6917.861,95.437,540.528,538.924,0.0
53138.0,STARLINK-4141,PAYLOAD,2023-09-30 03:28:05,15.08856215,0.0001341,53.217,211.6049,78.3213,281.7929,0.00041123,6.266e-05,0.0,0 STARLINK-4141,1 53138U 22083G   23273.14450297  .00006266  00000-0  41123-3 0  9998,2 53138  53.2170 211.6049 0001341  78.3213 281.7929 15.08856215 67468,6917.831,95.437,540.624,538.768,0.0
53138.0,STARLINK-4141,PAYLOAD,2023-09-30 13:00:23,15.08851107,0.0001374,53.2164,209.8211,79.5031,280.6116,0.00017531,2.504e-05,0.0,0 STARLINK-4141,1 53138U 22083G   23273.54194001  .00002504  00000-0  17531-3 0  9997,2 53138  53.2164 209.8211 0001374  79.5031 280.6116 15.08851107 67379,6917.846,95.437,540.662,538.761,0.0
53138.0,STARLINK-4141,PAYLOAD,2023-10-01 00:08:06,15.08830597,0.0001073,53.2181,207.7384,78.5198,281.5915,-0.00019582,-3.402e-05,0.0,0 STARLINK-4141,1 53138U 22083G   23274.00562892 -.00003402  00000-0 -19582-3 0  9994,2 53138  53.2181 207.7384 0001073  78.5198 281.5915 15.08830597 67440,6917.909,95.438,540.516,539.032,0.0
53138.0,STARLINK-4141,PAYLOAD,2023-10-01 04:54:15,15.08842062,0.000182,53.2158,206.8422,83.9506,276.1694,6.3816e-06,-1.87e-06,0.0,0 STARLINK-4141,1 53138U 22083G   23274.20434622 -.00000187  00000-0  63816-5 0  9992,2 53138  53.2158 206.8422 0001820  83.9506 276.1694 15.08842062 67477,6917.874,95.437,540.998,538.48,0.0
53138.0,STARLINK-4141,PAYLOAD,2023-10-01 12:51:11,15.08836162,0.0001358,53.2157,205.3601,94.4181,265.6966,4.6358e-05,4.5e-06,0.0,0 STARLINK-4141,1 53138U 22083G   23274.53554687  .00000450  00000-0  46358-4 0  9995,2 53138  53.2157 205.3601 0001358  94.4181 265.6966 15.08836162 67672,6917.892,95.438,540.697,538.818,0.0
53138.0,STARLINK-4141,PAYLOAD,2023-10-02 12:41:58,15.08847616,0.0001288,53.2155,200.9004,96.2333,263.8806,0.00024481,3.611e-05,0.0,0 STARLINK-4141,1 53138U 22083G   23275.52914457  .00003611  00000-0  24481-3 0  9994,2 53138  53.2155 200.9004 0001288  96.2333 263.8806 15.08847616 67678,6917.857,95.437,540.613,538.831,0.0
